STARLINK-1092
1 14969C 20001BH  21326.16010174  .00001907  00000-0  12783-3 0  3264
2 14969  53.0518 148.0235 0001947  79.9550 175.9615 15.06383819    14
